{"type": "FeatureCollection", "features": [{"type": "Feature", "properties": {"norad_id": 28054, "name": "DMSP 5D-3 F16 (USA 172)", "group": "weather", "lat": -73.57482582952426, "lon": 163.49317544629994, "alt_km": 847.5148457218229, "timestamp": "2025-12-24T11:32:59.645159+00:00", "meta": {"OBJECT_NAME": "DMSP 5D-3 F16 (USA 172)", "OBJECT_ID": "2003-048A", "EPOCH": "2025-12-24T02:11:03.206112", "MEAN_MOTION": 14.14428139, "ECCENTRICITY": 0.0006253, "INCLINATION": 99.0038, "RA_OF_ASC_NODE": 15.6369, "ARG_OF_PERICENTER": 284.4663, "MEAN_ANOMALY": 145.7869, "EPHEMERIS_TYPE": 0, "CLASSIFICATION_TYPE": "U", "NORAD_CAT_ID": 28054, "ELEMENT_SET_NO": 999, "REV_AT_EPOCH": 14473, "BSTAR": 8.1264e-05, "MEAN_MOTION_DOT": 1.1e-06, "MEAN_MOTION_DDOT": 0}, "tle": {"line1": "1 28054U 03048A   25358.09100933  .00000110  00000+0  81264-4 0  9998", "line2": "2 28054  99.0038  15.6369 0006253 284.4663 145.7869 14.14428139144735"}}, "geometry": {"type": "Point", "coordinates": [163.49317544629994, -73.57482582952426]}}, {"type": "Feature", "properties": {"norad_id": 28912, "name": "METEOSAT-9 (MSG-2)", "group": "weather", "lat": -8.679471188223275, "lon": -49.009472269418296, "alt_km": 35563.21216840591, "timestamp": "2025-12-24T11:32:59.645211+00:00", "meta": {"OBJECT_NAME": "METEOSAT-9 (MSG-2)", "OBJECT_ID": "2005-049B", "EPOCH": "2025-12-23T18:29:06.029088", "MEAN_MOTION": 1.00268078, "ECCENTRICITY": 0.00595948, "INCLINATION": 8.9546, "RA_OF_ASC_NODE": 55.8585, "ARG_OF_PERICENTER": 281.8406, "MEAN_ANOMALY": 77.1031, "EPHEMERIS_TYPE": 0, "CLASSIFICATION_TYPE": "U", "NORAD_CAT_ID": 28912, "ELEMENT_SET_NO": 999, "REV_AT_EPOCH": 523, "BSTAR": 0, "MEAN_MOTION_DOT": 1.44e-06, "MEAN_MOTION_DDOT": 0}, "tle": {"line1": "1 28912U 05049B   25357.77020867  .00000144  00000+0  00000+0 0  9996", "line2": "2 28912   8.9546  55.8585 0059594 281.8406  77.1031  1.00268078  5234"}}, "geometry": {"type": "Point", "coordinates": [-49.009472269418296, -8.679471188223275]}}, {"type": "Feature", "properties": {"norad_id": 29522, "name": "DMSP 5D-3 F17 (USA 191)", "group": "weather", "lat": -36.898791877920196, "lon": 176.99422529804775, "alt_km": 842.5281133722401, "timestamp": "2025-12-24T11:32:59.645229+00:00", "meta": {"OBJECT_NAME": "DMSP 5D-3 F17 (USA 191)", "OBJECT_ID": "2006-050A", "EPOCH": "2025-12-24T02:02:25.333152", "MEAN_MOTION": 14.14924303, "ECCENTRICITY": 0.0009894, "INCLINATION": 98.7392, "RA_OF_ASC_NODE": 3.2379, "ARG_OF_PERICENTER": 190.9976, "MEAN_ANOMALY": 169.0983, "EPHEMERIS_TYPE": 0, "CLASSIFICATION_TYPE": "U", "NORAD_CAT_ID": 29522, "ELEMENT_SET_NO": 999, "REV_AT_EPOCH": 98765, "BSTAR": 9.8062e-05, "MEAN_MOTION_DOT": 1.46e-06, "MEAN_MOTION_DDOT": 0}, "tle": {"line1": "1 29522U 06050A   25358.08501543  .00000146  00000+0  98062-4 0  9999", "line2": "2 29522  98.7392   3.2379 0009894 190.9976 169.0983 14.14924303987657"}}, "geometry": {"type": "Point", "coordinates": [176.99422529804775, -36.898791877920196]}}, {"type": "Feature", "properties": {"norad_id": 32958, "name": "FENGYUN 3A", "group": "weather", "lat": 53.91907330556995, "lon": 129.85019370002277, "alt_km": 826.4834595666707, "timestamp": "2025-12-24T11:32:59.645243+00:00", "meta": {"OBJECT_NAME": "FENGYUN 3A", "OBJECT_ID": "2008-026A", "EPOCH": "2025-12-24T02:30:13.082976", "MEAN_MOTION": 14.19517967, "ECCENTRICITY": 0.0007616, "INCLINATION": 98.6714, "RA_OF_ASC_NODE": 297.3926, "ARG_OF_PERICENTER": 273.6201, "MEAN_ANOMALY": 86.4104, "EPHEMERIS_TYPE": 0, "CLASSIFICATION_TYPE": "U", "NORAD_CAT_ID": 32958, "ELEMENT_SET_NO": 999, "REV_AT_EPOCH": 91056, "BSTAR": 7.2116e-05, "MEAN_MOTION_DOT": 1.09e-06, "MEAN_MOTION_DDOT": 0}, "tle": {"line1": "1 32958U 08026A   25358.10431809  .00000109  00000+0  72116-4 0  9992", "line2": "2 32958  98.6714 297.3926 0007616 273.6201  86.4104 14.19517967910567"}}, "geometry": {"type": "Point", "coordinates": [129.85019370002277, 53.91907330556995]}}, {"type": "Feature", "properties": {"norad_id": 35491, "name": "GOES 14", "group": "weather", "lat": 1.1236966853104715, "lon": 149.3329941557154, "alt_km": 35836.51110246079, "timestamp": "2025-12-24T11:32:59.645258+00:00", "meta": {"OBJECT_NAME": "GOES 14", "OBJECT_ID": "2009-033A", "EPOCH": "2025-12-24T02:16:45.579072", "MEAN_MOTION": 1.00097031, "ECCENTRICITY": 6.16e-05, "INCLINATION": 1.2315, "RA_OF_ASC_NODE": 85.2898, "ARG_OF_PERICENTER": 189.8174, "MEAN_ANOMALY": 95.0456, "EPHEMERIS_TYPE": 0, "CLASSIFICATION_TYPE": "U", "NORAD_CAT_ID": 35491, "ELEMENT_SET_NO": 999, "REV_AT_EPOCH": 483, "BSTAR": 0, "MEAN_MOTION_DOT": 3.2e-07, "MEAN_MOTION_DDOT": 0}, "tle": {"line1": "1 35491U 09033A   25358.09497198  .00000032  00000+0  00000+0 0  9990", "line2": "2 35491   1.2315  85.2898 0000616 189.8174  95.0456  1.00097031  4832"}}, "geometry": {"type": "Point", "coordinates": [149.3329941557154, 1.1236966853104715]}}, {"type": "Feature", "properties": {"norad_id": 35951, "name": "DMSP 5D-3 F18 (USA 210)", "group": "weather", "lat": 75.56457830084193, "lon": -62.59709729249411, "alt_km": 830.0783458782307, "timestamp": "2025-12-24T11:32:59.645270+00:00", "meta": {"OBJECT_NAME": "DMSP 5D-3 F18 (USA 210)", "OBJECT_ID": "2009-057A", "EPOCH": "2025-12-24T02:41:38.505408", "MEAN_MOTION": 14.14776536, "ECCENTRICITY": 0.0011739, "INCLINATION": 98.8848, "RA_OF_ASC_NODE": 334.4568, "ARG_OF_PERICENTER": 32.7111, "MEAN_ANOMALY": 327.4787, "EPHEMERIS_TYPE": 0, "CLASSIFICATION_TYPE": "U", "NORAD_CAT_ID": 35951, "ELEMENT_SET_NO": 999, "REV_AT_EPOCH": 83483, "BSTAR": 0.00016195, "MEAN_MOTION_DOT": 2.68e-06, "MEAN_MOTION_DDOT": 0}, "tle": {"line1": "1 35951U 09057A   25358.11225122  .00000268  00000+0  16195-3 0  9993", "line2": "2 35951  98.8848 334.4568 0011739  32.7111 327.4787 14.14776536834837"}}, "geometry": {"type": "Point", "coordinates": [-62.59709729249411, 75.56457830084193]}}, {"type": "Feature", "properties": {"norad_id": 36411, "name": "EWS-G2 (GOES 15)", "group": "weather", "lat": -0.7569556594562391, "lon": -32.092646468314015, "alt_km": 35775.711457904996, "timestamp": "2025-12-24T11:32:59.645284+00:00", "meta": {"OBJECT_NAME": "EWS-G2 (GOES 15)", "OBJECT_ID": "2010-008A", "EPOCH": "2025-12-23T23:41:43.737792", "MEAN_MOTION": 1.00271068, "ECCENTRICITY": 0.0005547, "INCLINATION": 0.8397, "RA_OF_ASC_NODE": 86.0708, "ARG_OF_PERICENTER": 178.6344, "MEAN_ANOMALY": 244.8511, "EPHEMERIS_TYPE": 0, "CLASSIFICATION_TYPE": "U", "NORAD_CAT_ID": 36411, "ELEMENT_SET_NO": 999, "REV_AT_EPOCH": 5788, "BSTAR": 0, "MEAN_MOTION_DOT": 5.9e-07, "MEAN_MOTION_DDOT": 0}, "tle": {"line1": "1 36411U 10008A   25357.98731178  .00000059  00000+0  00000+0 0  9992", "line2": "2 36411   0.8397  86.0708 0005547 178.6344 244.8511  1.00271068 57885"}}, "geometry": {"type": "Point", "coordinates": [-32.092646468314015, -0.7569556594562391]}}, {"type": "Feature", "properties": {"norad_id": 36744, "name": "COMS 1", "group": "weather", "lat": -2.982134237647119, "lon": 34.766189068578825, "alt_km": 35787.70749561633, "timestamp": "2025-12-24T11:32:59.645297+00:00", "meta": {"OBJECT_NAME": "COMS 1", "OBJECT_ID": "2010-032A", "EPOCH": "2025-12-23T21:08:51.785088", "MEAN_MOTION": 1.0027056, "ECCENTRICITY": 8.15e-05, "INCLINATION": 4.3655, "RA_OF_ASC_NODE": 77.8722, "ARG_OF_PERICENTER": 213.5288, "MEAN_ANOMALY": 246.655, "EPHEMERIS_TYPE": 0, "CLASSIFICATION_TYPE": "U", "NORAD_CAT_ID": 36744, "ELEMENT_SET_NO": 999, "REV_AT_EPOCH": 4933, "BSTAR": 0, "MEAN_MOTION_DOT": -3.25e-06, "MEAN_MOTION_DDOT": 0}, "tle": {"line1": "1 36744U 10032A   25357.88115492 -.00000325  00000+0  00000+0 0  9999", "line2": "2 36744   4.3655  77.8722 0000815 213.5288 246.6550  1.00270560 49333"}}, "geometry": {"type": "Point", "coordinates": [34.766189068578825, -2.982134237647119]}}, {"type": "Feature", "properties": {"norad_id": 37214, "name": "FENGYUN 3B", "group": "weather", "lat": 43.421725457046165, "lon": 29.924634849711442, "alt_km": 836.6327970052307, "timestamp": "2025-12-24T11:32:59.645309+00:00", "meta": {"OBJECT_NAME": "FENGYUN 3B", "OBJECT_ID": "2010-059A", "EPOCH": "2025-12-24T04:57:51.313824", "MEAN_MOTION": 14.14792052, "ECCENTRICITY": 0.0021524, "INCLINATION": 98.9887, "RA_OF_ASC_NODE": 38.2634, "ARG_OF_PERICENTER": 324.8529, "MEAN_ANOMALY": 122.2619, "EPHEMERIS_TYPE": 0, "CLASSIFICATION_TYPE": "U", "NORAD_CAT_ID": 37214, "ELEMENT_SET_NO": 999, "REV_AT_EPOCH": 78268, "BSTAR": 3.2249e-05, "MEAN_MOTION_DOT": 1.7e-07, "MEAN_MOTION_DDOT": 0}, "tle": {"line1": "1 37214U 10059A   25358.20684391  .00000017  00000+0  32249-4 0  9999", "line2": "2 37214  98.9887  38.2634 0021524 324.8529 122.2619 14.14792052782680"}}, "geometry": {"type": "Point", "coordinates": [29.924634849711442, 43.421725457046165]}}, {"type": "Feature", "properties": {"norad_id": 37849, "name": "SUOMI NPP", "group": "weather", "lat": 79.3448705639557, "lon": -119.50059758488922, "alt_km": 817.8561832164714, "timestamp": "2025-12-24T11:32:59.645321+00:00", "meta": {"OBJECT_NAME": "SUOMI NPP", "OBJECT_ID": "2011-061A", "EPOCH": "2025-12-22T15:10:21.732672", "MEAN_MOTION": 14.19516903, "ECCENTRICITY": 0.00024883, "INCLINATION": 98.7787, "RA_OF_ASC_NODE": 293.8852, "ARG_OF_PERICENTER": 103.0781, "MEAN_ANOMALY": 257.0673, "EPHEMERIS_TYPE": 0, "CLASSIFICATION_TYPE": "U", "NORAD_CAT_ID": 37849, "ELEMENT_SET_NO": 999, "REV_AT_EPOCH": 73339, "BSTAR": 6.3406935e-05, "MEAN_MOTION_DOT": 8.9e-07, "MEAN_MOTION_DDOT": 0}, "tle": {"line1": "1 37849U 11061A   25356.63219598  .00000089  00000+0  63407-4 0  9994", "line2": "2 37849  98.7787 293.8852 0002488 103.0781 257.0673 14.19516903733392"}}, "geometry": {"type": "Point", "coordinates": [-119.50059758488922, 79.3448705639557]}}]}